OBJECT_NAME,OBJECT_ID,EPOCH,MEAN_MOTION,ECCENTRICITY,INCLINATION,RA_OF_ASC_NODE,ARG_OF_PERICENTER,MEAN_ANOMALY,EPHEMERIS_TYPE,CLASSIFICATION_TYPE,NORAD_CAT_ID,ELEMENT_SET_NO,REV_AT_EPOCH,BSTAR,MEAN_MOTION_DOT,MEAN_MOTION_DDOT
SUOMI NPP,2011-061A,2026-06-11T04:59:53.098944,14.19516138,.00018646,98.7953,103.1252,20.3894,339.7356,0,U,37849,999,75759,.42973082E-4,.46E-6,0
YAOGAN-12,2011-066B,2026-06-11T07:13:10.193088,15.26534421,.00082499,97.1154,201.1461,240.6677,119.3739,0,U,37875,999,81114,.31346997E-3,.8131E-4,0
BEIDOU-2 M4,2012-018B,2026-06-09T14:29:07.108800,1.86229817,.00111465,55.6651,304.3456,277.0468,82.8157,0,U,38251,999,9580,0,-.6E-6,0
ARIRANG-3 (KOMPSAT-3),2012-025B,2026-06-11T06:49:43.447296,14.62200897,.00064451,98.1175,119.8464,124.3436,235.8376,0,U,38338,999,75048,.78158657E-4,.347E-5,0
HORYU-2,2012-025D,2026-06-11T03:10:42.369312,14.91032380,.00078196,98.2164,294.8219,193.0095,167.0922,0,U,38340,999,74782,.28991108E-3,.2809E-4,0
CSSWE,2012-048D,2026-06-11T06:28:28.744896,15.44172989,.00479675,64.6612,113.5320,175.5722,184.5850,0,U,38761,999,11548,.44128136E-3,.21035E-3,0
CP5,2012-048F,2026-06-11T07:21:47.083680,15.27633857,.00794374,64.6431,172.0205,178.1808,181.9627,0,U,38763,999,11586,.29272535E-3,.8492E-4,0
METOP-B,2012-049A,2026-06-11T06:38:31.282080,14.21431073,.00025859,98.6506,213.8937,33.7546,326.3796,0,U,38771,999,71242,.56018094E-4,.79E-6,0
SJ-9A,2012-056A,2026-06-11T05:40:56.936640,14.85466040,.00239562,97.6707,134.4034,277.5368,82.3126,0,U,38860,999,69870,.1273178E-3,.105E-4,0
COSMOS 2484 (RODNIK-S 6),2013-001C,2026-06-11T06:28:52.172256,12.42938764,.00270986,82.5020,225.5709,49.1980,311.1445,0,U,39059,999,60782,-.41650035E-4,.4E-7,0
SARAL,2013-009A,2026-06-11T05:52:44.808384,14.32854429,.00010269,98.5557,348.8876,341.1912,18.9234,0,U,39086,999,69475,.46255952E-4,.82E-6,0
AAUSAT 3,2013-009B,2026-06-10T22:14:30.086304,14.39931667,.00104189,98.3702,345.8634,226.6005,133.4317,0,U,39087,999,69627,.186781E-3,.545E-5,0
STRAND-1,2013-009E,2026-06-10T17:17:24.189504,14.37159492,.00074787,98.3921,342.1141,247.3445,112.6951,0,U,39090,999,69613,.1009267E-3,.257E-5,0
BRITE-AUSTRIA,2013-009F,2026-06-11T01:53:25.175040,14.36539653,.00089837,98.3993,341.6658,257.1343,102.8840,0,U,39091,999,69617,.64241738E-4,.146E-5,0
UNIBRITE,2013-009G,2026-06-11T00:29:59.034624,14.36410845,.00079207,98.4032,341.7188,253.1276,106.9042,0,U,39092,999,69610,.69935307E-4,.162E-5,0
AIST-2 (RS43),2013-015D,2026-06-11T07:03:25.589088,15.26238161,.00189871,64.8695,276.6010,246.6410,113.2723,0,U,39133,999,72300,.20087231E-3,.504E-4,0
GAOFEN-1,2013-018A,2026-06-11T07:16:00.732864,14.76530333,.00157859,97.9093,234.4900,286.9972,72.9508,0,U,39150,999,70737,.23905961E-4,.116E-5,0
NEE-01 PEGASO,2013-018B,2026-06-09T21:31:01.316928,14.93627979,.0012551,98.1215,304.8067,181.9337,178.1836,0,U,39151,999,70961,.23819067E-3,.2457E-4,0
TURKSAT-3USAT,2013-018C,2026-06-11T04:43:27.679296,14.96388409,.00135246,97.7925,253.0468,118.3540,241.9047,0,U,39152,999,71019,.29969068E-3,.3342E-4,0
CUBEBUG-1 (CAPITAN BETO),2013-018D,2026-06-10T22:52:29.239680,14.97263947,.00116622,98.1660,321.6179,163.7809,196.3787,0,U,39153,999,71013,.20499638E-3,.2313E-4,0
PROBA-V,2013-021A,2026-06-10T22:25:05.712096,14.23595672,.00048806,98.3581,140.8495,138.3417,221.8135,0,U,39159,999,68022,.45482203E-4,.63E-6,0
ESTCUBE 1,2013-021C,2026-06-11T02:46:29.191296,14.81382252,.00091025,97.7295,216.5141,43.6075,316.5856,0,U,39161,999,70412,.17732292E-3,.1336E-4,0
ARIRANG-5 (KOMPSAT-5),2013-042A,2026-06-11T07:31:04.973664,15.04475652,.00047903,97.6218,349.0967,136.4943,223.6662,0,U,39227,999,70297,.86275269E-4,.1146E-4,0
GONETS-M 5,2013-048A,2026-06-11T05:43:38.806176,12.42891513,.00158641,82.4836,347.0922,224.0113,135.9705,0,U,39249,999,57814,.21281152E-4,.13E-6,0
GONETS-M 7,2013-048C,2026-06-11T06:46:22.543104,12.42914184,.00166542,82.4904,349.9841,225.3336,134.6388,0,U,39251,999,57810,-.38715937E-3,-.44E-6,0
FENGYUN 3C,2013-052A,2026-06-11T05:57:57.801024,14.15753709,.00155393,98.4976,136.3962,43.8949,316.3457,0,U,39260,999,65772,.60487233E-4,.78E-6,0
CASSIOPE,2013-055A,2026-06-11T04:34:55.468128,15.24631413,.02948725,80.9146,73.9988,82.5498,280.9131,0,U,39265,999,66675,.45687394E-3,.41596E-3,-.579199E-6
APRIZESAT 7,2013-066A,2026-06-11T04:24:00.302112,14.91551199,.00345698,97.7707,115.4897,229.6745,130.1452,0,U,39416,999,68033,.77374216E-4,.726E-5,0
ZACUBE-1 (TSHEPISOSAT),2013-066B,2026-06-11T03:23:55.287168,15.01151583,.00401874,97.8086,124.4456,268.8905,90.7715,0,U,39417,999,67982,.24354498E-3,.311E-4,0
APRIZESAT 8,2013-066K,2026-06-11T02:06:36.657792,14.87640786,.00446914,97.8220,109.6410,307.2502,52.4642,0,U,39425,999,67876,.10067289E-3,.874E-5,0
