{"_default": { "26": {"norad_id": "39417", "name": "ZACUBE", "tle1": "1 39417U 13066B   26162.14161212  .00003110  00000-0  24354-3 0  9991", "tle2": "2 39417  97.8086 124.4456 0040187 268.8905  90.7715 15.01151583679829", "object_type": "PAYLOAD", "criticality_score": 9.0, "last_updated": "2026-06-11T13:56:27.956741+00:00", "maneuver_count": 0}, "27": {"norad_id": "39161", "name": "ESTCUBE 1", "tle1": "1 39161U 13021C   26162.11561564  .00001336  00000-0  17732-3 0  9999", "tle2": "2 39161  97.7295 216.5141 0009103  43.6075 316.5856 14.81382252704123", "object_type": "PAYLOAD", "criticality_score": 9.0, "last_updated": "2026-06-11T13:56:27.956741+00:00", "maneuver_count": 0}, "28": {"norad_id": "39153", "name": "CUBEBUG 1", "tle1": "1 39153U 13018D   26161.95311620  .00002313  00000-0  20500-3 0  9996", "tle2": "2 39153  98.1660 321.6179 0011662 163.7809 196.3787 14.97263947710137", "object_type": "PAYLOAD", "criticality_score": 9.0, "last_updated": "2026-06-11T13:56:27.956741+00:00", "maneuver_count": 0}, "29": {"norad_id": "39091", "name": "BRITE-A TUGSAT-1", "tle1": "1 39091U 13009F   26162.07876360  .00000146  00000-0  64242-4 0  9992", "tle2": "2 39091  98.3993 341.6658 0008984 257.1343 102.8840 14.36539653696179", "object_type": "PAYLOAD", "criticality_score": 9.0, "last_updated": "2026-06-11T13:56:27.956741+00:00", "maneuver_count": 0}, "30": {"norad_id": "39087", "name": "AAUSAT3", "tle1": "1 39087U 13009B   26161.92673711  .00000545  00000-0  18678-3 0  9999", "tle2": "2 39087  98.3702 345.8634 0010419 226.6005 133.4317 14.39931667696278", "object_type": "PAYLOAD", "criticality_score": 9.0, "last_updated": "2026-06-11T13:56:27.956741+00:00", "maneuver_count": 0}, "57": {"norad_id": "39260", "name": "FENGYUN 3C", "tle1": "1 39260U 13052A   26162.24858566  .00000078  00000-0  60487-4 0  9996", "tle2": "2 39260  98.4976 136.3962 0015539  43.8949 316.3457 14.15753709657723", "object_type": "PAYLOAD", "criticality_score": 9.0, "last_updated": "2026-06-11T13:56:27.956741+00:00", "maneuver_count": 0}, "58": {"norad_id": "39090", "name": "STRAND 1", "tle1": "1 39090U 13009E   26161.72041886  .00000257  00000-0  10093-3 0  9996", "tle2": "2 39090  98.3921 342.1141 0007479 247.3445 112.6951 14.37159492696132", "object_type": "PAYLOAD", "criticality_score": 9.0, "last_updated": "2026-06-11T13:56:27.956741+00:00", "maneuver_count": 0}, "60": {"norad_id": "38340", "name": "HORYU 2", "tle1": "1 38340U 12025D   26162.13243483  .00002809  00000-0  28991-3 0  9994", "tle2": "2 38340  98.2164 294.8219 0007820 193.0095 167.0922 14.91032380747825", "object_type": "PAYLOAD", "criticality_score": 9.0, "last_updated": "2026-06-11T13:56:27.956741+00:00", "maneuver_count": 0}, "117": {"norad_id": "39265", "name": "CASSIOPE", "tle1": "1 39265U 13055A   26162.19091977  .00041596 -57920-6  45687-3 0  9997", "tle2": "2 39265  80.9146  73.9988 0294872  82.5498 280.9131 15.24631413666751", "object_type": "PAYLOAD", "criticality_score": 9.0, "last_updated": "2026-06-11T13:56:27.956741+00:00", "maneuver_count": 0}, "118": {"norad_id": "39151", "name": "NEE 01 PEGASUS", "tle1": "1 39151U 13018B   26160.89654302  .00002457  00000-0  23819-3 0  9998", "tle2": "2 39151  98.1215 304.8067 0012551 181.9337 178.1836 14.93627979709615", "object_type": "PAYLOAD", "criticality_score": 9.0, "last_updated": "2026-06-11T13:56:27.956741+00:00", "maneuver_count": 0}, "119": {"norad_id": "39092", "name": "BRITE-U UNIBRITE", "tle1": "1 39092U 13009G   26162.02082216  .00000162  00000-0  69935-4 0  9999", "tle2": "2 39092  98.4032 341.7188 0007921 253.1276 106.9042 14.36410845696108", "object_type": "PAYLOAD", "criticality_score": 9.0, "last_updated": "2026-06-11T13:56:27.956741+00:00", "maneuver_count": 0}, "120": {"norad_id": "39086", "name": "SARAL", "tle1": "1 39086U 13009A   26162.24496306  .00000082  00000-0  46256-4 0  9997", "tle2": "2 39086  98.5557 348.8876 0001027 341.1912  18.9234 14.32854429694752", "object_type": "PAYLOAD", "criticality_score": 9.0, "last_updated": "2026-06-11T13:56:27.956741+00:00", "maneuver_count": 0}, "121": {"norad_id": "38771", "name": "METOP-B", "tle1": "1 38771U 12049A   26162.27675095  .00000079  00000-0  56018-4 0  9990", "tle2": "2 38771  98.6506 213.8937 0002586  33.7546 326.3796 14.21431073712422", "object_type": "PAYLOAD", "criticality_score": 9.0, "last_updated": "2026-06-11T13:56:27.956741+00:00", "maneuver_count": 0}, "198": {"norad_id": "38761", "name": "CSSWE", "tle1": "1 38761U 12048D   26162.26977714  .00021035  00000-0  44128-3 0  9993", "tle2": "2 38761  64.6612 113.5320 0047968 175.5722 184.5850 15.44172989115480", "object_type": "PAYLOAD", "criticality_score": 9.0, "last_updated": "2026-06-11T13:56:27.956741+00:00", "maneuver_count": 0}, "201": {"norad_id": "38763", "name": "CP5", "tle1": "1 38763U 12048F   26162.30679495  .00008492  00000-0  29273-3 0  9991", "tle2": "2 38763  64.6431 172.0205 0079437 178.1808 181.9627 15.27633857115865", "object_type": "PAYLOAD", "criticality_score": 9.0, "last_updated": "2026-06-11T13:56:27.956741+00:00", "maneuver_count": 0}, "210": {"norad_id": "39152", "name": "TURKSAT 3U", "tle1": "1 39152U 13018C   26162.19684814  .00003342  00000-0  29969-3 0  9991", "tle2": "2 39152  97.7925 253.0468 0013525 118.3540 241.9047 14.96388409710194", "object_type": "PAYLOAD", "criticality_score": 9.0, "last_updated": "2026-06-11T13:56:27.956741+00:00", "maneuver_count": 0}, "258": {"norad_id": "39159", "name": "PROBA V", "tle1": "1 39159U 13021A   26161.93409389  .00000063  00000-0  45482-4 0  9991", "tle2": "2 39159  98.3581 140.8495 0004881 138.3417 221.8135 14.23595672680226", "object_type": "PAYLOAD", "criticality_score": 9.0, "last_updated": "2026-06-11T13:56:27.956741+00:00", "maneuver_count": 0}, "266": {"norad_id": "39133", "name": "AIST 2", "tle1": "1 39133U 13015D   26162.29404617  .00005040  00000-0  20087-3 0  9998", "tle2": "2 39133  64.8695 276.6010 0018987 246.6410 113.2723 15.26238161723003", "object_type": "PAYLOAD", "criticality_score": 9.0, "last_updated": "2026-06-11T13:56:27.956741+00:00", "maneuver_count": 0}, "373": {"norad_id": "39416", "name": "APRIZESAT 7", "tle1": "1 39416U 13066A   26162.18333683  .00000726  00000-0  77374-4 0  9998", "tle2": "2 39416  97.7707 115.4897 0034570 229.6745 130.1452 14.91551199680332", "object_type": "PAYLOAD", "criticality_score": 9.0, "last_updated": "2026-06-11T13:56:27.956741+00:00", "maneuver_count": 0}, "374": {"norad_id": "39425", "name": "APRIZESAT 8", "tle1": "1 39425U 13066K   26162.08792428  .00000874  00000-0  10067-3 0  9992", "tle2": "2 39425  97.8220 109.6410 0044691 307.2502  52.4642 14.87640786678765", "object_type": "PAYLOAD", "criticality_score": 9.0, "last_updated": "2026-06-11T13:56:27.956741+00:00", "maneuver_count": 0}, "434": {"norad_id": "38860", "name": "SJ-9A", "tle1": "1 38860U 12056A   26162.23677010  .00001050  00000-0  12732-3 0  9996", "tle2": "2 38860  97.6707 134.4034 0023956 277.5368  82.3126 14.85466040698705", "object_type": "PAYLOAD", "criticality_score": 9.0, "last_updated": "2026-06-11T13:56:27.956741+00:00", "maneuver_count": 0}, "471": {"norad_id": "37849", "name": "NPP", "tle1": "1 37849U 11061A   26162.20825346  .00000046  00000-0  42973-4 0  9996", "tle2": "2 37849  98.7953 103.1252 0001865  20.3894 339.7356 14.19516138757592", "object_type": "PAYLOAD", "criticality_score": 9.0, "last_updated": "2026-06-11T13:56:27.956741+00:00", "maneuver_count": 0}, "531": {"norad_id": "37875", "name": "YAOGAN 12", "tle1": "1 37875U 11066B   26162.30081242  .00008131  00000-0  31347-3 0  9995", "tle2": "2 37875  97.1154 201.1461 0008250 240.6677 119.3739 15.26534421811142", "object_type": "PAYLOAD", "criticality_score": 9.0, "last_updated": "2026-06-11T13:56:27.956741+00:00", "maneuver_count": 0}, "537": {"norad_id": "39227", "name": "KOMPSAT 5", "tle1": "1 39227U 13042A   26162.31325201  .00001146  00000-0  86275-4 0  9991", "tle2": "2 39227  97.6218 349.0967 0004790 136.4943 223.6662 15.04475652702977", "object_type": "PAYLOAD", "criticality_score": 9.0, "last_updated": "2026-06-11T13:56:27.956741+00:00", "maneuver_count": 0}, "592": {"norad_id": "39059", "name": "COSMOS 2484", "tle1": "1 39059U 13001C   26162.27004829  .00000004  00000-0 -41650-4 0  9995", "tle2": "2 39059  82.5020 225.5709 0027099  49.1980 311.1445 12.42938764607821", "object_type": "PAYLOAD", "criticality_score": 9.0, "last_updated": "2026-06-11T13:56:27.956741+00:00", "maneuver_count": 0}, "593": {"norad_id": "39249", "name": "GONETS M 05", "tle1": "1 39249U 13048A   26162.23864359  .00000013  00000-0  21281-4 0  9992", "tle2": "2 39249  82.4836 347.0922 0015864 224.0113 135.9705 12.42891513578145", "object_type": "PAYLOAD", "criticality_score": 9.0, "last_updated": "2026-06-11T13:56:27.956741+00:00", "maneuver_count": 0}, "594": {"norad_id": "39251", "name": "GONETS M 07", "tle1": "1 39251U 13048C   26162.28220536 -.00000044  00000-0 -38716-3 0  9999", "tle2": "2 39251  82.4904 349.9841 0016654 225.3336 134.6388 12.42914184578103", "object_type": "PAYLOAD", "criticality_score": 9.0, "last_updated": "2026-06-11T13:56:27.956741+00:00", "maneuver_count": 0}, "639": {"norad_id": "39150", "name": "GAOFEN 1", "tle1": "1 39150U 13018A   26162.30278626  .00000116  00000-0  23906-4 0  9994", "tle2": "2 39150  97.9093 234.4900 0015786 286.9972  72.9508 14.76530333707379", "object_type": "PAYLOAD", "criticality_score": 9.0, "last_updated": "2026-06-11T13:56:27.956741+00:00", "maneuver_count": 0}, "645": {"norad_id": "38338", "name": "KOMPSAT 3", "tle1": "1 38338U 12025B   26162.28453064  .00000347  00000-0  78159-4 0  9992", "tle2": "2 38338  98.1175 119.8464 0006445 124.3436 235.8376 14.62200897750480", "object_type": "PAYLOAD", "criticality_score": 9.0, "last_updated": "2026-06-11T13:56:27.956741+00:00", "maneuver_count": 0}, "658": {"norad_id": "38251", "name": "BEIDOU 13", "tle1": "1 38251U 12018B   26160.60355450 -.00000060  00000-0  00000-0 0  9991", "tle2": "2 38251  55.6651 304.3456 0011147 277.0468  82.8157  1.86229817 95809", "object_type": "PAYLOAD", "criticality_score": 9.0, "last_updated": "2026-06-11T13:56:27.956741+00:00", "maneuver_count": 0}}}